GOES 14                 
1 35491U 09033A   23296.91924234 -.00000071  00000+0  00000+0 0  9990
2 35491   0.3061 264.0472 0002956 248.5811 101.8085  1.00270972 52402
GOES 15                 
1 36411U 10008A   23297.08328698 -.00000005  00000+0  00000+0 0  9995
2 36411   0.2927 274.2231 0005772 322.6456 257.7060  0.99973625 49939
GPS BIIF-2              
1 37753U 11036A   23296.62188767 -.00000087  00000+0  00000+0 0  9997
2 37753  56.7493   9.5575 0126861  56.3140 324.1429  2.00568846 89871
GSAT0101 (GALILEO-PFM)  
1 37846U 11060A   23295.98329858 -.00000086  00000+0  00000+0 0  9992
2 37846  57.1138   7.9830 0000465 338.2572  21.7892  1.70475734 74612
GSAT0102 (GALILEO-FM2)  
1 37847U 11060B   23295.31561841 -.00000084  00000+0  00000+0 0  9998
2 37847  57.1142   8.0011 0002255 300.1433  56.3050  1.70475176 74603
LUCH 5A                 
1 37951U 11074B   23296.76563796 -.00000047  00000+0  00000+0 0  9999
2 37951   6.2696  88.8485 0004060 105.1868 280.4598  1.00272094 43352
METEOSAT-10 (MSG-3)     
1 38552U 12035B   23297.14979810 -.00000013  00000+0  00000+0 0  9999
2 38552   2.4421  58.1966 0000296 199.6209 187.9344  1.00272339 41521
SARSAT 13 (METOP-B)     
1 38771U 12049A   23297.19094312  .00000189  00000+0  10628-3 0  9991
2 38771  98.6635 354.3139 0001089  90.5116 345.1531 14.21517658575877
GPS BIIF-3              
1 38833U 12053A   23296.57542573  .00000014  00000+0  00000+0 0  9999
2 38833  53.5098 183.1809 0145210  52.9793 308.4118  2.00567944 80926
GSAT0103 (GALILEO-FM3)  
1 38857U 12055A   23296.02245298  .00000074  00000+0  00000+0 0  9997
2 38857  55.3027 128.1536 0002069 242.0236 118.0267  1.70473562 68506
GSAT0104 (GALILEO-FM4)  
1 38858U 12055B   23294.81866630  .00000071  00000+0  00000+0 0  9999
2 38858  55.3019 128.1881 0001297 143.4630 216.6147  1.70473816 68598
GPS BIIF-4              
1 39166U 13023A   23296.43880278 -.00000014  00000+0  00000+0 0  9990
2 39166  55.3180 308.1455 0115581  41.5261 319.3848  2.00564068 76476
INSAT-3D                
1 39216U 13038B   23296.87031558 -.00000161  00000+0  00000+0 0  9992
2 39216   0.0740  85.7921 0001989 142.5519 199.0952  1.00271888 37370
GPS BIIF-5              
1 39533U 14008A   23296.43970446  .00000006  00000+0  00000+0 0  9999
2 39533  53.5960 188.7512 0067058 215.4043 144.2120  2.00554372 70278
LUCH 5V                 
1 39727U 14023A   23297.08772513 -.00000272  00000+0  00000+0 0  9994
2 39727   2.6998  77.0762 0003854 162.9201 278.6034  1.00272054552816
GPS BIIF-6              
1 39741U 14026A   23296.72148103 -.00000087  00000+0  00000+0 0  9999
2 39741  56.7010   9.0755 0030677 309.5050  50.2704  2.00553520 69135
GPS BIIF-7              
1 40105U 14045A   23295.30897792  .00000076  00000+0  00000+0 0  9991
2 40105  54.8316 127.1546 0027339 114.6836 245.6657  2.00550000 66647
GSAT0201 (GALILEO 5)    
1 40128U 14050A   23295.31348702 -.00000031  00000+0  00000+0 0  9997
2 40128  49.8926 312.6464 1607282 142.1923 230.2868  1.85519251 60348
GSAT0202 (GALILEO 6)    
1 40129U 14050B   23296.65067956 -.00000036  00000+0  00000+0 0  9990
2 40129  49.9103 311.6654 1605242 143.0526 229.1802  1.85519922 62533
GPS BIIF-8              
1 40294U 14068A   23296.67930649 -.00000003  00000+0  00000+0 0  9996
2 40294  56.2207  68.5275 0048953  62.8724 297.6238  2.00574899 65804
GLONASS-K 2             
1 40315U 14075A   23296.21871910 -.00000006  00000+0  00000+0 0  9996
2 40315  63.6347 223.9573 0019085 208.9450 150.9610  2.13101161 69223
GPS BIIF-9              
1 40534U 15013A   23296.32107831 -.00000011  00000+0  00000+0 0  9994
2 40534  53.4419 244.2606 0082955  26.2701 334.1366  2.00551590 62837
GSAT0203 (GALILEO 7)    
1 40544U 15017A   23295.76263665 -.00000086  00000+0  00000+0 0  9996
2 40544  56.9087   7.9553 0004786 242.3069 117.6931  1.70476022 52693
GSAT0204 (GALILEO 8)    
1 40545U 15017B   23296.01641739 -.00000087  00000+0  00000+0 0  9999
2 40545  56.9151   7.9628 0004642 229.2859 130.7221  1.70475540 53368
GPS BIIF-10             
1 40730U 15033A   23296.48295694 -.00000014  00000+0  00000+0 0  9999
2 40730  54.8055 306.7340 0087283  14.0722 346.2050  2.00552411 60589
METEOSAT-11 (MSG-4)     
1 40732U 15034A   23296.85578279  .00000059  00000+0  00000+0 0  9994
2 40732   0.8370  57.6645 0002105 228.3164  63.3430  1.00274939 30314
GSAT0205 (GALILEO 9)    
1 40889U 15045A   23295.78446084  .00000002  00000+0  00000+0 0  9996
2 40889  55.3387 248.3587 0004431   9.9321 350.0576  1.70472856 50501
GSAT0206 (GALILEO 10)   
1 40890U 15045B   23296.00513025  .00000000  00000+0  00000+0 0  9992
2 40890  55.3375 248.3481 0002893 349.8228  10.1513  1.70472927 50532
GPS BIIF-11             
1 41019U 15062A   23296.03516476  .00000001  00000+0  00000+0 0  9992
2 41019  56.2033  68.4037 0091365 221.5405 137.7637  2.00562062 58412
ELEKTRO-L 2             
1 41105U 15074A   23296.77937692 -.00000117  00000+0  00000+0 0  9998
2 41105   4.2323  82.2759 0003221 155.0877  60.6486  1.00270176 28803
GSAT0209 (GALILEO 12)   
1 41174U 15079A   23295.00343453  .00000071  00000+0  00000+0 0  9998
2 41174  55.3201 127.8889 0001975 345.9248  14.1384  1.70474167 48252
GSAT0208 (GALILEO 11)   
1 41175U 15079B   23295.22307543  .00000072  00000+0  00000+0 0  9994
2 41175  55.3185 127.8809 0001370   1.8276 358.2420  1.70474054 48836
GPS BIIF-12             
1 41328U 16007A   23296.12394581  .00000082  00000+0  00000+0 0  9995
2 41328  55.0352 127.9115 0072327 233.5569 125.8401  2.00573325 56469
GSAT0211 (GALILEO 14)   
1 41549U 16030A   23295.34423903  .00000006  00000+0  00000+0 0  9996
2 41549  55.4854 248.3519 0004068 327.5139  32.4437  1.70472977 46159
GSAT0210 (GALILEO 13)   
1 41550U 16030B   23296.22227779 -.00000002  00000+0  00000+0 0  9996
2 41550  55.4843 248.3288 0003565 291.2220  68.7188  1.70473230 46160
INSAT-3DR               
1 41752U 16054A   23297.08354806 -.00000082  00000+0  00000+0 0  9991
2 41752   0.1496  88.4503 0013182 176.4724 231.3951  1.00270791 26105
GSAT0207 (GALILEO 15)   
1 41859U 16069A   23295.88383233  .00000073  00000+0  00000+0 0  9996
2 41859  54.9838 127.9246 0001704 311.6159  48.4400  1.70474091 42891
GSAT0212 (GALILEO 16)   
1 41860U 16069B   23295.15184864  .00000071  00000+0  00000+0 0  9995
2 41860  54.9812 127.9418 0001805  29.3641 330.7150  1.70474322 43131
GSAT0213 (GALILEO 17)   
1 41861U 16069C   23294.93169962  .00000070  00000+0  00000+0 0  9992
2 41861  54.9831 127.9539 0001808 258.5805 101.4678  1.70472971 42997
GSAT0214 (GALILEO 18)   
1 41862U 16069D   23295.07897945  .00000071  00000+0  00000+0 0  9999
2 41862  54.9813 127.9438 0000845 252.1903 107.8693  1.70472848 43121
GOES 16                 
1 41866U 16071A   23297.18876602 -.00000254  00000+0  00000+0 0  9991
2 41866   0.0500 281.2171 0000735 326.6095 137.2835  1.00272150 25408
GSAT-17                 
1 42815U 17040B   23297.08746406 -.00000263  00000+0  00000+0 0  9990
2 42815   0.1023  90.6235 0005821 163.1471 263.4691  1.00270771 23171
GSAT0215 (GALILEO 19)   
1 43055U 17079A   23296.15399381 -.00000001  00000+0  00000+0 0  9992
2 43055  55.4611 248.1548 0003012 286.5083  73.4378  1.70473656 36483
GSAT0216 (GALILEO 20)   
1 43056U 17079B   23296.44587178 -.00000004  00000+0  00000+0 0  9991
2 43056  55.4618 248.1466 0004597 287.2988  72.6286  1.70473783 36504
GSAT0217 (GALILEO 21)   
1 43057U 17079C   23296.07966229 -.00000001  00000+0  00000+0 0  9996
2 43057  55.4598 248.1557 0004277 299.8886  60.0486  1.70473767 36486
GSAT0218 (GALILEO 22)   
1 43058U 17079D   23296.29971091 -.00000003  00000+0  00000+0 0  9996
2 43058  55.4599 248.1472 0005019 282.6506  77.2718  1.70473745 36516
GOES 17                 
1 43226U 18022A   23297.17274083 -.00000096  00000+0  00000+0 0  9999
2 43226   0.0039   6.3091 0001934 194.5258 149.0211  1.00269457 20735
GSAT0221 (GALILEO 25)   
1 43564U 18060A   23295.02634225 -.00000083  00000+0  00000+0 0  9992
2 43564  57.2894   7.9156 0004506 259.9422 100.0570  1.70475870 32642
GSAT0222 (GALILEO 26)   
1 43565U 18060B   23294.07132733 -.00000080  00000+0  00000+0 0  9991
2 43565  57.2927   7.9426 0004494 229.7964 130.2160  1.70475760 32673
GSAT0219 (GALILEO 23)   
1 43566U 18060C   23296.05333990 -.00000086  00000+0  00000+0 0  9996
2 43566  57.2922   7.8911 0003422 262.6284  97.3813  1.70476017 32683
GSAT0220 (GALILEO 24)   
1 43567U 18060D   23296.27378752 -.00000087  00000+0  00000+0 0  9997
2 43567  57.2918   7.8856 0003730 258.6812 101.3252  1.70475673 32670
BEIDOU-3 M13            
1 43622U 18072A   23296.40828251  .00000063  00000+0  00000+0 0  9994
2 43622  55.8098  94.8238 0004063 286.4922  73.4812  1.86231263 34637
BEIDOU-3 M14            
1 43623U 18072B   23296.81068864  .00000062  00000+0  00000+0 0  9995
2 43623  55.8121  94.8031 0002039 343.1452  16.8657  1.86231264 34635
GPS BIII-1              
1 43873U 18109A   23295.01453226  .00000074  00000+0  00000+0 0  9997
2 43873  55.2095 130.4809 0026742 189.7624 343.6722  2.00570235 35634
METEOR-M2 2             
1 44387U 19038A   23297.19493678  .00000106  00000+0  65763-4 0  9994
2 44387  98.7938 260.9373 0000500 346.2665  13.8499 14.23818270223668
GPS BIII-2              
1 44506U 19056A   23296.35326491 -.00000087  00000+0  00000+0 0  9999
2 44506  55.8267   9.5009 0038271 187.6363 131.1697  2.00566172 30653
BEIDOU-3 M23            
1 44542U 19061A   23296.11540490 -.00000014  00000+0  00000+0 0  9996
2 44542  54.4766 215.4107 0008605 352.9848   7.0239  1.86231452 27766
BEIDOU-3 M24            
1 44543U 19061B   23296.57357892 -.00000017  00000+0  00000+0 0  9992
2 44543  54.4749 215.3644 0005630 342.5664 236.5775  1.86231676 27772
BEIDOU-3 M21            
1 44793U 19078A   23297.03470434 -.00000057  00000+0  00000+0 0  9991
2 44793  54.7265 333.5870 0004999   6.0032 354.0620  1.86232011 26641
